NORAD_CAT_ID,OBJECT_NAME,OBJECT_TYPE,EPOCH,MEAN_MOTION,ECCENTRICITY,INCLINATION,RA_OF_ASC_NODE,ARG_OF_PERICENTER,MEAN_ANOMALY,BSTAR,MEAN_MOTION_DOT,MEAN_MOTION_DDOT,TLE_LINE0,TLE_LINE1,TLE_LINE2,SEMIMAJOR_AXIS,PERIOD,APOGEE,PERIGEE,DECAYED
55773.0,STARLINK-5833,PAYLOAD,2023-09-25 13:42:38,14.98334882,0.0003056,70.0006,323.8743,267.2832,92.7977,8.8213e-05,9.6e-06,0.0,0 STARLINK-5833,1 55773U 23028AJ  23268.57127782  .00000960  00000-0  88213-4 0  9993,2 55773  70.0006 323.8743 0003056 267.2832  92.7977 14.98334882 32305,6950.178,96.107,574.167,569.919,0.0
55773.0,STARLINK-5833,PAYLOAD,2023-09-26 10:32:23,14.98328315,0.000296,70.0006,321.6862,266.7262,93.3559,-1.2514e-05,-2.42e-06,0.0,0 STARLINK-5833,1 55773U 23028AJ  23269.43916381 -.00000242  00000-0 -12514-4 0  9996,2 55773  70.0006 321.6862 0002960 266.7262  93.3559 14.98328315 32438,6950.198,96.107,574.12,570.006,0.0
55773.0,STARLINK-5833,PAYLOAD,2023-09-26 13:44:39,14.98328703,0.000297,70.0006,321.3495,266.8822,93.1997,-9.675e-06,-2.08e-06,0.0,0 STARLINK-5833,1 55773U 23028AJ  23269.57268355 -.00000208  00000-0 -96750-5 0  9999,2 55773  70.0006 321.3495 0002970 266.8822  93.1997 14.98328703 32458,6950.197,96.107,574.126,569.998,0.0
55773.0,STARLINK-5833,PAYLOAD,2023-09-27 12:10:32,14.98333207,0.0002961,70.0002,318.9927,267.6665,92.4155,-4.8298e-05,-6.69e-06,0.0,0 STARLINK-5833,1 55773U 23028AJ  23270.50732170 -.00000669  00000-0 -48298-4 0  9999,2 55773  70.0002 318.9927 0002961 267.6665  92.4155 14.98333207 32598,6950.183,96.107,574.106,569.99,0.0
55773.0,STARLINK-5833,PAYLOAD,2023-09-27 13:46:40,14.9833313,0.0002979,70.0001,318.8241,268.1889,91.8929,-4.9164e-05,-6.8e-06,0.0,0 STARLINK-5833,1 55773U 23028AJ  23270.57408163 -.00000680  00000-0 -49164-4 0  9994,2 55773  70.0001 318.8241 0002979 268.1889  91.8929 14.98333130 32607,6950.183,96.107,574.119,569.978,0.0
55773.0,STARLINK-5833,PAYLOAD,2023-09-28 12:12:33,14.98326881,0.0002918,70.0,316.467,266.8809,93.2016,8.876e-06,1.3e-07,0.0,0 STARLINK-5833,1 55773U 23028AJ  23271.50872415  .00000013  00000-0  88760-5 0  9997,2 55773  70.0000 316.4670 0002918 266.8809  93.2016 14.98326881 32749,6950.203,96.107,574.096,570.039,0.0
55773.0,STARLINK-5833,PAYLOAD,2023-09-29 10:38:26,14.98328538,0.0002959,69.9998,314.11,260.7896,99.2929,-1.4067e-06,-1.1e-06,0.0,0 STARLINK-5833,1 55773U 23028AJ  23272.44336366 -.00000110  00000-0 -14067-5 0  9990,2 55773  69.9998 314.1100 0002959 260.7896  99.2929 14.98328538 32884,6950.197,96.107,574.119,570.006,0.0
55773.0,STARLINK-5833,PAYLOAD,2023-09-29 12:14:34,14.98329662,0.0002952,69.9998,313.9417,260.5513,99.5312,1.11e-05,3.9e-07,0.0,0 STARLINK-5833,1 55773U 23028AJ  23272.51012258  .00000039  00000-0  11100-4 0  9991,2 55773  69.9998 313.9417 0002952 260.5513  99.5312 14.98329662 32898,6950.194,96.107,574.111,570.007,0.0
55773.0,STARLINK-5833,PAYLOAD,2023-09-30 04:15:54,14.98332323,0.0002992,69.9996,312.2584,260.8295,99.2525,4.8577e-05,4.87e-06,0.0,0 STARLINK-5833,1 55773U 23028AJ  23273.17771913  .00000487  00000-0  48577-4 0  9999,2 55773  69.9996 312.2584 0002992 260.8295  99.2525 14.98332323 32999,6950.186,96.107,574.13,569.971,0.0
55773.0,STARLINK-5833,PAYLOAD,2023-09-30 10:40:27,14.98333202,0.0003108,69.9992,311.5837,269.5937,90.4866,5.1314e-05,5.19e-06,0.0,0 STARLINK-5833,1 55773U 23028AJ  23273.44475840  .00000519  00000-0  51314-4 0  9998,2 55773  69.9992 311.5837 0003108 269.5937  90.4866 14.98333202 33031,6950.183,96.107,574.208,569.888,0.0
55773.0,STARLINK-5833,PAYLOAD,2023-10-01 10:42:27,14.98333037,0.0003018,69.9993,309.0586,268.8433,91.238,3.5145e-05,3.26e-06,0.0,0 STARLINK-5833,1 55773U 23028AJ  23274.44615727  .00000326  00000-0  35145-4 0  9999,2 55773  69.9993 309.0586 0003018 268.8433  91.2380 14.98333037 33180,6950.183,96.107,574.146,569.951,0.0
55773.0,STARLINK-5833,PAYLOAD,2023-10-01 12:18:35,14.98333659,0.0003014,69.9993,308.8902,268.8533,91.228,4.1311e-05,4e-06,0.0,0 STARLINK-5833,1 55773U 23028AJ  23274.51291653  .00000400  00000-0  41311-4 0  9990,2 55773  69.9993 308.8902 0003014 268.8533  91.2280 14.98333659 33196,6950.182,96.107,574.141,569.952,0.0
55773.0,STARLINK-5833,PAYLOAD,2023-10-01 20:19:16,14.98329491,0.0002956,69.9994,308.0483,269.0923,90.9898,-5.4945e-05,-7.49e-06,0.0,0 STARLINK-5833,1 55773U 23028AJ  23274.84672128 -.00000749  00000-0 -54945-4 0  9991,2 55773  69.9994 308.0483 0002956 269.0923  90.9898 14.98329491 33249,6950.194,96.107,574.114,570.005,0.0
55773.0,STARLINK-5833,PAYLOAD,2023-10-02 02:43:49,14.98328956,0.0002951,69.9993,307.375,268.9259,91.1562,-6.6694e-05,-8.89e-06,0.0,0 STARLINK-5833,1 55773U 23028AJ  23275.11376191 -.00000889  00000-0 -66694-4 0  9992,2 55773  69.9993 307.3750 0002951 268.9259  91.1562 14.98328956 33282,6950.196,96.107,574.112,570.01,0.0
55773.0,STARLINK-5833,PAYLOAD,2023-10-02 12:20:37,14.98327174,0.0003022,69.9991,306.3658,270.5882,89.4931,-8.1372e-05,-1.064e-05,0.0,0 STARLINK-5833,1 55773U 23028AJ  23275.51432385 -.00001064  00000-0 -81372-4 0  9990,2 55773  69.9991 306.3658 0003022 270.5882  89.4931 14.98327174 33345,6950.202,96.107,574.167,569.966,0.0
55773.0,STARLINK-5833,PAYLOAD,2023-10-03 04:21:57,14.98330888,0.0003095,69.9987,304.6824,269.1623,90.9182,6.8101e-06,-1.2e-07,0.0,0 STARLINK-5833,1 55773U 23028AJ  23276.18191897 -.00000012  00000-0  68101-5 0  9991,2 55773  69.9987 304.6824 0003095 269.1623  90.9182 14.98330888 33445,6950.19,96.107,574.206,569.904,0.0
55773.0,STARLINK-5833,PAYLOAD,2023-10-03 10:46:29,14.98335508,0.0003103,69.9986,304.0088,269.6391,90.4412,2.5733e-05,2.14e-06,0.0,0 STARLINK-5833,1 55773U 23028AJ  23276.44895505  .00000214  00000-0  25733-4 0  9993,2 55773  69.9986 304.0088 0003103 269.6391  90.4412 14.98335508 33486,6950.176,96.107,574.197,569.884,0.0
55773.0,STARLINK-5833,PAYLOAD,2023-10-04 10:48:30,14.98328706,0.0003067,69.9985,301.4839,271.4699,88.6109,6.261e-05,6.54e-06,0.0,0 STARLINK-5833,1 55773U 23028AJ  23277.45035787  .00000654  00000-0  62610-4 0  9996,2 55773  69.9985 301.4839 0003067 271.4699  88.6109 14.98328706 33632,6950.197,96.107,574.194,569.93,0.0
55773.0,STARLINK-5833,PAYLOAD,2023-10-05 10:50:32,14.9832926,0.0002824,69.9992,298.9591,267.4507,92.6328,-2.8447e-05,-4.32e-06,0.0,0 STARLINK-5833,1 55773U 23028AJ  23278.45176028 -.00000432  00000-0 -28447-4 0  9997,2 55773  69.9992 298.9591 0002824 267.4507  92.6328 14.98329260 33788,6950.195,96.107,574.023,570.097,0.0
55773.0,STARLINK-5833,PAYLOAD,2023-10-05 18:51:12,14.98330322,0.0002498,70.0001,298.1165,254.9655,105.1227,-4.4465e-05,-6.23e-06,0.0,0 STARLINK-5833,1 55773U 23028AJ  23278.78556179 -.00000623  00000-0 -44465-4 0  9992,2 55773  70.0001 298.1165 0002498 254.9655 105.1227 14.98330322 33838,6950.192,96.107,573.793,570.321,0.0
55773.0,STARLINK-5833,PAYLOAD,2023-10-06 10:52:32,14.98330279,0.0002935,69.9985,296.4337,269.2147,90.8676,1.4993e-05,8.6e-07,0.0,0 STARLINK-5833,1 55773U 23028AJ  23279.45315794  .00000086  00000-0  14993-4 0  9997,2 55773  69.9985 296.4337 0002935 269.2147  90.8676 14.98330279 33939,6950.192,96.107,574.097,570.017,0.0
55773.0,STARLINK-5833,PAYLOAD,2023-10-06 18:53:13,14.98327889,0.0002805,69.9993,295.5913,266.7409,93.3429,-1.0764e-05,-2.21e-06,0.0,0 STARLINK-5833,1 55773U 23028AJ  23279.78696008 -.00000221  00000-0 -10764-4 0  9998,2 55773  69.9993 295.5913 0002805 266.7409  93.3429 14.98327889 33989,6950.199,96.107,574.014,570.115,0.0
55773.0,STARLINK-5833,PAYLOAD,2023-10-07 10:54:33,14.98328085,0.0002849,69.9986,293.9078,267.8878,92.1955,7.4981e-05,8.02e-06,0.0,0 STARLINK-5833,1 55773U 23028AJ  23280.45455832  .00000802  00000-0  74981-4 0  9996,2 55773  69.9986 293.9078 0002849 267.8878  92.1955 14.98328085 34087,6950.199,96.107,574.044,570.084,0.0
55773.0,STARLINK-5833,PAYLOAD,2023-10-07 12:30:41,14.98330853,0.0002913,69.9985,293.7399,268.844,91.2386,5.5073e-05,5.64e-06,0.0,0 STARLINK-5833,1 55773U 23028AJ  23280.52131706  .00000564  00000-0  55073-4 0  9991,2 55773  69.9985 293.7399 0002913 268.8440  91.2386 14.98330853 34093,6950.19,96.107,574.08,570.031,0.0
55773.0,STARLINK-5833,PAYLOAD,2023-10-07 18:55:14,14.98330591,0.0002851,69.9988,293.0667,278.6118,81.4718,-5.3638e-06,-1.57e-06,0.0,0 STARLINK-5833,1 55773U 23028AJ  23280.78835953 -.00000157  00000-0 -53638-5 0  9990,2 55773  69.9988 293.0667 0002851 278.6118  81.4718 14.98330591 34133,6950.191,96.107,574.038,570.075,0.0
55773.0,STARLINK-5833,PAYLOAD,2023-10-08 12:32:42,14.98332758,0.0002899,69.9986,291.215,270.8847,89.1979,3.7601e-05,3.56e-06,0.0,0 STARLINK-5833,1 55773U 23028AJ  23281.52271615  .00000356  00000-0  37601-4 0  9992,2 55773  69.9986 291.2150 0002899 270.8847  89.1979 14.98332758 34246,6950.184,96.107,574.064,570.035,0.0
55773.0,STARLINK-5833,PAYLOAD,2023-10-09 10:58:35,14.98332366,0.0002761,69.999,288.8583,273.7876,86.2967,2.7379e-05,2.34e-06,0.0,0 STARLINK-5833,1 55773U 23028AJ  23282.45735647  .00000234  00000-0  27379-4 0  9991,2 55773  69.9990 288.8583 0002761 273.7876  86.2967 14.98332366 34380,6950.186,96.107,573.97,570.132,0.0
55773.0,STARLINK-5833,PAYLOAD,2023-10-09 17:23:08,14.9833077,0.0002722,69.999,288.1849,274.5554,85.5294,-1.3503e-05,-2.54e-06,0.0,0 STARLINK-5833,1 55773U 23028AJ  23282.72439836 -.00000254  00000-0 -13503-4 0  9990,2 55773  69.9990 288.1849 0002722 274.5554  85.5294 14.98330770 34424,6950.191,96.107,573.947,570.164,0.0
55773.0,STARLINK-5833,PAYLOAD,2023-10-10 09:24:28,14.9833204,0.0002562,69.9989,286.5012,269.0361,91.0504,2.7801e-05,2.39e-06,0.0,0 STARLINK-5833,1 55773U 23028AJ  23283.39199535  .00000239  00000-0  27801-4 0  9990,2 55773  69.9989 286.5012 0002562 269.0361  91.0504 14.98332040 34522,6950.187,96.107,573.832,570.271,0.0
55773.0,STARLINK-5833,PAYLOAD,2023-10-11 03:01:57,14.98324426,0.0002689,69.9985,284.6505,268.7343,91.3508,-9.8276e-06,-2.1e-06,0.0,0 STARLINK-5833,1 55773U 23028AJ  23284.12636008 -.00000210  00000-0 -98276-5 0  9999,2 55773  69.9985 284.6505 0002689 268.7343  91.3508 14.98324426 34638,6950.21,96.107,573.944,570.206,0.0
